[Satellite]
VERSION=1.1
NAME=FLOCK 2E'-17
NICKNAME=FLOCK 2E'-17
TLE1=1 41776U 98067KN  18020.95282029  .00049293  00000-0  39539-3 0  9992
TLE2=2 41776  51.6365   8.7312 0006109  51.1165 309.0377 15.70486595 76944
